{
  "norad_id": 68882,
  "name": "KUIPER-00500",
  "history": [
    {
      "epoch": "2026-05-02T10:00:03.000096Z",
      "apogee_km": 458.5969335218997,
      "perigee_km": 450.5998999901294,
      "latitude_deg": 26.635956516170292,
      "longitude_deg": -109.68204707774525,
      "height_km": 452.0259404570203,
      "semi_major_axis_km": 6832.735416756014,
      "eccentricity": 0.0005852,
      "inclination_deg": 51.8797,
      "raan_deg": 103.7051,
      "arg_perigee_deg": 120.5953,
      "mean_anomaly_deg": 24.7466,
      "mean_motion_rev_day": 15.37130911
    }
  ]
}