{"fetched_at":"2026-05-03T06:27:58Z","count":17151,"tles":[{"name":"KUIPER-00500","line1":"1 68882U 26095U   26122.41670139  .00069600  00000+0  18778-2 0  9991","line2":"2 68882  51.8797 103.7051 0005852 120.5953  24.7466 15.37130911  1903","category":"Other"}]}